[{"OBJECT_NAME":"STARLINK-4296","OBJECT_ID":"2022-076K","EPOCH":"2026-03-09T08:41:04.217568","MEAN_MOTION":15.08854856,"ECCENTRICITY":0.00015707,"INCLINATION":53.2164,"RA_OF_ASC_NODE":95.5914,"ARG_OF_PERICENTER":86.5737,"MEAN_ANOMALY":273.5435,"EPHEMERIS_TYPE":0,"CLASSIFICATION_TYPE":"U","NORAD_CAT_ID":52995,"ELEMENT_SET_NO":999,"REV_AT_EPOCH":20279,"BSTAR":0.00013322775,"MEAN_MOTION_DOT":1.834e-5,"MEAN_MOTION_DDOT":0},{"OBJECT_NAME":"YUNYAO-1 44","OBJECT_ID":"2025-059B","EPOCH":"2026-03-09T23:37:33.233088","MEAN_MOTION":15.10344945,"ECCENTRICITY":0.00180831,"INCLINATION":97.6069,"RA_OF_ASC_NODE":250.8958,"ARG_OF_PERICENTER":135.5449,"MEAN_ANOMALY":224.7236,"EPHEMERIS_TYPE":0,"CLASSIFICATION_TYPE":"U","NORAD_CAT_ID":63345,"ELEMENT_SET_NO":999,"REV_AT_EPOCH":5332,"BSTAR":0.0003556422,"MEAN_MOTION_DOT":5.791e-5,"MEAN_MOTION_DDOT":0}]
